{
  "norad_id": 47814,
  "name": "STARLINK-2395",
  "history": [
    {
      "epoch": "2026-03-28T14:24:32.234976Z",
      "apogee_km": 476.04096248500264,
      "perigee_km": 474.401639179443,
      "latitude_deg": 3.8991984805649545e-05,
      "longitude_deg": 112.85922612158201,
      "height_km": 475.943326534592,
      "semi_major_axis_km": 6853.358300832222,
      "eccentricity": 0.0001196,
      "inclination_deg": 53.1594,
      "raan_deg": 155.012,
      "arg_perigee_deg": 77.5921,
      "mean_anomaly_deg": 282.5214,
      "mean_motion_rev_day": 15.30197913
    }
  ]
}